CCSDS_OMM_VERS = 2.0
CREATION_DATE  = 
ORIGINATOR     = 

OBJECT_NAME    = STARLINK-36907
OBJECT_ID      = 2026-037J
CENTER_NAME    = EARTH
REF_FRAME      = TEME
TIME_SYSTEM    = UTC
MEAN_ELEMENT_THEORY = SGP/SGP4

EPOCH          = 2026-03-21T12:00:00.999648
MEAN_MOTION    = 15.65127306
ECCENTRICITY   = .00011378
INCLINATION    = 42.9999
RA_OF_ASC_NODE = 126.3984
ARG_OF_PERICENTER = 274.2801
MEAN_ANOMALY   = 303.0024

EPHEMERIS_TYPE = 0
CLASSIFICATION_TYPE = U
NORAD_CAT_ID   = 67940
ELEMENT_SET_NO = 999
REV_AT_EPOCH   = 509
BSTAR          = -.20961346E-1
MEAN_MOTION_DOT = -.1886619E-1
MEAN_MOTION_DDOT = 0

CCSDS_OMM_VERS = 2.0
CREATION_DATE  = 
ORIGINATOR     = 

OBJECT_NAME    = STARLINK-36927
OBJECT_ID      = 2026-037K
CENTER_NAME    = EARTH
REF_FRAME      = TEME
TIME_SYSTEM    = UTC
MEAN_ELEMENT_THEORY = SGP/SGP4

EPOCH          = 2026-03-21T12:00:00.999648
MEAN_MOTION    = 15.62328461
ECCENTRICITY   = .00009564
INCLINATION    = 42.9993
RA_OF_ASC_NODE = 126.4863
ARG_OF_PERICENTER = 282.2372
MEAN_ANOMALY   = 259.4903

EPHEMERIS_TYPE = 0
CLASSIFICATION_TYPE = U
NORAD_CAT_ID   = 67941
ELEMENT_SET_NO = 999
REV_AT_EPOCH   = 509
BSTAR          = -.23501352E-1
MEAN_MOTION_DOT = -.1890977E-1
MEAN_MOTION_DDOT = 0

CCSDS_OMM_VERS = 2.0
CREATION_DATE  = 
ORIGINATOR     = 

OBJECT_NAME    = STARLINK-36914
OBJECT_ID      = 2026-037L
CENTER_NAME    = EARTH
REF_FRAME      = TEME
TIME_SYSTEM    = UTC
MEAN_ELEMENT_THEORY = SGP/SGP4

EPOCH          = 2026-03-21T12:00:00.999648
MEAN_MOTION    = 15.69306248
ECCENTRICITY   = .00011849
INCLINATION    = 42.9995
RA_OF_ASC_NODE = 126.2876
ARG_OF_PERICENTER = 275.5189
MEAN_ANOMALY   = 346.3457

EPHEMERIS_TYPE = 0
CLASSIFICATION_TYPE = U
NORAD_CAT_ID   = 67942
ELEMENT_SET_NO = 999
REV_AT_EPOCH   = 509
BSTAR          = -.17693186E-1
MEAN_MOTION_DOT = -.1890565E-1
MEAN_MOTION_DDOT = 0

CCSDS_OMM_VERS = 2.0
CREATION_DATE  = 
ORIGINATOR     = 

OBJECT_NAME    = STARLINK-36851
OBJECT_ID      = 2026-037M
CENTER_NAME    = EARTH
REF_FRAME      = TEME
TIME_SYSTEM    = UTC
MEAN_ELEMENT_THEORY = SGP/SGP4

EPOCH          = 2026-03-21T12:00:00.999648
MEAN_MOTION    = 15.63313509
ECCENTRICITY   = .00010138
INCLINATION    = 42.9994
RA_OF_ASC_NODE = 126.4781
ARG_OF_PERICENTER = 277.4864
MEAN_ANOMALY   = 267.7270

EPHEMERIS_TYPE = 0
CLASSIFICATION_TYPE = U
NORAD_CAT_ID   = 67943
ELEMENT_SET_NO = 999
REV_AT_EPOCH   = 509
BSTAR          = -.22560148E-1
MEAN_MOTION_DOT = -.1887907E-1
MEAN_MOTION_DDOT = 0

CCSDS_OMM_VERS = 2.0
CREATION_DATE  = 
ORIGINATOR     = 

OBJECT_NAME    = STARLINK-36892
OBJECT_ID      = 2026-037N
CENTER_NAME    = EARTH
REF_FRAME      = TEME
TIME_SYSTEM    = UTC
MEAN_ELEMENT_THEORY = SGP/SGP4

EPOCH          = 2026-03-21T12:00:00.999648
MEAN_MOTION    = 15.64115973
ECCENTRICITY   = .00010242
INCLINATION    = 42.9993
RA_OF_ASC_NODE = 126.4257
ARG_OF_PERICENTER = 275.7415
MEAN_ANOMALY   = 290.6735

EPHEMERIS_TYPE = 0
CLASSIFICATION_TYPE = U
NORAD_CAT_ID   = 67944
ELEMENT_SET_NO = 999
REV_AT_EPOCH   = 509
BSTAR          = -.21840239E-1
MEAN_MOTION_DOT = -.1887229E-1
MEAN_MOTION_DDOT = 0

CCSDS_OMM_VERS = 2.0
CREATION_DATE  = 
ORIGINATOR     = 

OBJECT_NAME    = STARLINK-36908
OBJECT_ID      = 2026-037P
CENTER_NAME    = EARTH
REF_FRAME      = TEME
TIME_SYSTEM    = UTC
MEAN_ELEMENT_THEORY = SGP/SGP4

EPOCH          = 2026-03-21T12:00:00.999648
MEAN_MOTION    = 15.64950290
ECCENTRICITY   = .00010481
INCLINATION    = 42.9995
RA_OF_ASC_NODE = 126.3723
ARG_OF_PERICENTER = 275.2437
MEAN_ANOMALY   = 312.3381

EPHEMERIS_TYPE = 0
CLASSIFICATION_TYPE = U
NORAD_CAT_ID   = 67945
ELEMENT_SET_NO = 999
REV_AT_EPOCH   = 509
BSTAR          = -.20997854E-1
MEAN_MOTION_DOT = -.1877549E-1
MEAN_MOTION_DDOT = 0

CCSDS_OMM_VERS = 2.0
CREATION_DATE  = 
ORIGINATOR     = 

OBJECT_NAME    = STARLINK-36909
OBJECT_ID      = 2026-037Q
CENTER_NAME    = EARTH
REF_FRAME      = TEME
TIME_SYSTEM    = UTC
MEAN_ELEMENT_THEORY = SGP/SGP4

EPOCH          = 2026-03-21T12:00:00.999648
MEAN_MOTION    = 15.71419164
ECCENTRICITY   = .00013249
INCLINATION    = 42.9993
RA_OF_ASC_NODE = 126.1695
ARG_OF_PERICENTER = 277.2598
MEAN_ANOMALY   = 31.4677

EPHEMERIS_TYPE = 0
CLASSIFICATION_TYPE = U
NORAD_CAT_ID   = 67946
ELEMENT_SET_NO = 999
REV_AT_EPOCH   = 509
BSTAR          = -.16020379E-1
MEAN_MOTION_DOT = -.1837657E-1
MEAN_MOTION_DDOT = 0

CCSDS_OMM_VERS = 2.0
CREATION_DATE  = 
ORIGINATOR     = 

OBJECT_NAME    = STARLINK-36920
OBJECT_ID      = 2026-037R
CENTER_NAME    = EARTH
REF_FRAME      = TEME
TIME_SYSTEM    = UTC
MEAN_ELEMENT_THEORY = SGP/SGP4

EPOCH          = 2026-03-21T12:00:00.999648
MEAN_MOTION    = 15.60259754
ECCENTRICITY   = .00009773
INCLINATION    = 42.9991
RA_OF_ASC_NODE = 126.5448
ARG_OF_PERICENTER = 283.9806
MEAN_ANOMALY   = 233.8975

EPHEMERIS_TYPE = 0
CLASSIFICATION_TYPE = U
NORAD_CAT_ID   = 67947
ELEMENT_SET_NO = 999
REV_AT_EPOCH   = 509
BSTAR          = -.25149496E-1
MEAN_MOTION_DOT = -.1869152E-1
MEAN_MOTION_DDOT = 0

CCSDS_OMM_VERS = 2.0
CREATION_DATE  = 
ORIGINATOR     = 

OBJECT_NAME    = STARLINK-36873
OBJECT_ID      = 2026-037S
CENTER_NAME    = EARTH
REF_FRAME      = TEME
TIME_SYSTEM    = UTC
MEAN_ELEMENT_THEORY = SGP/SGP4

EPOCH          = 2026-03-21T12:00:00.999648
MEAN_MOTION    = 15.59016697
ECCENTRICITY   = .00009997
INCLINATION    = 42.9992
RA_OF_ASC_NODE = 126.5926
ARG_OF_PERICENTER = 293.9296
MEAN_ANOMALY   = 204.2470

EPHEMERIS_TYPE = 0
CLASSIFICATION_TYPE = U
NORAD_CAT_ID   = 67948
ELEMENT_SET_NO = 999
REV_AT_EPOCH   = 509
BSTAR          = -.26421633E-1
MEAN_MOTION_DOT = -.1871454E-1
MEAN_MOTION_DDOT = 0

CCSDS_OMM_VERS = 2.0
CREATION_DATE  = 
ORIGINATOR     = 

OBJECT_NAME    = STARLINK-36863
OBJECT_ID      = 2026-037T
CENTER_NAME    = EARTH
REF_FRAME      = TEME
TIME_SYSTEM    = UTC
MEAN_ELEMENT_THEORY = SGP/SGP4

EPOCH          = 2026-03-21T12:00:00.999648
MEAN_MOTION    = 15.63583775
ECCENTRICITY   = .00011416
INCLINATION    = 42.9995
RA_OF_ASC_NODE = 126.3814
ARG_OF_PERICENTER = 276.7991
MEAN_ANOMALY   = 306.9700

EPHEMERIS_TYPE = 0
CLASSIFICATION_TYPE = U
NORAD_CAT_ID   = 67949
ELEMENT_SET_NO = 999
REV_AT_EPOCH   = 509
BSTAR          = -.22251374E-1
MEAN_MOTION_DOT = -.1882947E-1
MEAN_MOTION_DDOT = 0

CCSDS_OMM_VERS = 2.0
CREATION_DATE  = 
ORIGINATOR     = 

OBJECT_NAME    = STARLINK-36887
OBJECT_ID      = 2026-037U
CENTER_NAME    = EARTH
REF_FRAME      = TEME
TIME_SYSTEM    = UTC
MEAN_ELEMENT_THEORY = SGP/SGP4

EPOCH          = 2026-03-21T12:00:00.999648
MEAN_MOTION    = 15.50576308
ECCENTRICITY   = .00012845
INCLINATION    = 42.9994
RA_OF_ASC_NODE = 127.1335
ARG_OF_PERICENTER = 295.3566
MEAN_ANOMALY   = 344.7954

EPHEMERIS_TYPE = 0
CLASSIFICATION_TYPE = U
NORAD_CAT_ID   = 67950
ELEMENT_SET_NO = 999
REV_AT_EPOCH   = 509
BSTAR          = -.93948972E-3
MEAN_MOTION_DOT = -.55065E-3
MEAN_MOTION_DDOT = 0

CCSDS_OMM_VERS = 2.0
CREATION_DATE  = 
ORIGINATOR     = 

OBJECT_NAME    = STARLINK-36897
OBJECT_ID      = 2026-037V
CENTER_NAME    = EARTH
REF_FRAME      = TEME
TIME_SYSTEM    = UTC
MEAN_ELEMENT_THEORY = SGP/SGP4

EPOCH          = 2026-03-21T12:00:00.999648
MEAN_MOTION    = 15.62562442
ECCENTRICITY   = .00010953
INCLINATION    = 42.9996
RA_OF_ASC_NODE = 126.4009
ARG_OF_PERICENTER = 276.8195
MEAN_ANOMALY   = 298.8237

EPHEMERIS_TYPE = 0
CLASSIFICATION_TYPE = U
NORAD_CAT_ID   = 67951
ELEMENT_SET_NO = 999
REV_AT_EPOCH   = 509
BSTAR          = -.23157101E-1
MEAN_MOTION_DOT = -.1881853E-1
MEAN_MOTION_DDOT = 0

CCSDS_OMM_VERS = 2.0
CREATION_DATE  = 
ORIGINATOR     = 

OBJECT_NAME    = STARLINK-36381
OBJECT_ID      = 2026-037W
CENTER_NAME    = EARTH
REF_FRAME      = TEME
TIME_SYSTEM    = UTC
MEAN_ELEMENT_THEORY = SGP/SGP4

EPOCH          = 2026-03-21T12:00:00.999648
MEAN_MOTION    = 15.61055448
ECCENTRICITY   = .00009884
INCLINATION    = 42.9996
RA_OF_ASC_NODE = 126.4439
ARG_OF_PERICENTER = 291.4043
MEAN_ANOMALY   = 266.9292

EPHEMERIS_TYPE = 0
CLASSIFICATION_TYPE = U
NORAD_CAT_ID   = 67952
ELEMENT_SET_NO = 999
REV_AT_EPOCH   = 509
BSTAR          = -.24048473E-1
MEAN_MOTION_DOT = -.1846415E-1
MEAN_MOTION_DDOT = 0

CCSDS_OMM_VERS = 2.0
CREATION_DATE  = 
ORIGINATOR     = 

OBJECT_NAME    = STARLINK-36824
OBJECT_ID      = 2026-037X
CENTER_NAME    = EARTH
REF_FRAME      = TEME
TIME_SYSTEM    = UTC
MEAN_ELEMENT_THEORY = SGP/SGP4

EPOCH          = 2026-03-21T12:00:00.999648
MEAN_MOTION    = 15.51313760
ECCENTRICITY   = .00010301
INCLINATION    = 42.9995
RA_OF_ASC_NODE = 126.9757
ARG_OF_PERICENTER = 280.1706
MEAN_ANOMALY   = 63.9472

EPHEMERIS_TYPE = 0
CLASSIFICATION_TYPE = U
NORAD_CAT_ID   = 67953
ELEMENT_SET_NO = 999
REV_AT_EPOCH   = 509
BSTAR          = -.19323735E-1
MEAN_MOTION_DOT = -.1056846E-1
MEAN_MOTION_DDOT = 0

CCSDS_OMM_VERS = 2.0
CREATION_DATE  = 
ORIGINATOR     = 

OBJECT_NAME    = STARLINK-36869
OBJECT_ID      = 2026-037Y
CENTER_NAME    = EARTH
REF_FRAME      = TEME
TIME_SYSTEM    = UTC
MEAN_ELEMENT_THEORY = SGP/SGP4

EPOCH          = 2026-03-21T12:00:00.999648
MEAN_MOTION    = 15.50943390
ECCENTRICITY   = .00011704
INCLINATION    = 42.9994
RA_OF_ASC_NODE = 126.9662
ARG_OF_PERICENTER = 305.5324
MEAN_ANOMALY   = 41.6447

EPHEMERIS_TYPE = 0
CLASSIFICATION_TYPE = U
NORAD_CAT_ID   = 67954
ELEMENT_SET_NO = 999
REV_AT_EPOCH   = 509
BSTAR          = -.11369449E-1
MEAN_MOTION_DOT = -.624685E-2
MEAN_MOTION_DDOT = 0

